OBJECT_NAME,OBJECT_ID,EPOCH,MEAN_MOTION,ECCENTRICITY,INCLINATION,RA_OF_ASC_NODE,ARG_OF_PERICENTER,MEAN_ANOMALY,EPHEMERIS_TYPE,CLASSIFICATION_TYPE,NORAD_CAT_ID,ELEMENT_SET_NO,REV_AT_EPOCH,BSTAR,MEAN_MOTION_DOT,MEAN_MOTION_DDOT
STARLINK-36933,2026-114Q,2026-06-06T14:00:04.000032,15.80770295,.00006818,53.1586,255.2845,114.4516,338.4836,0,U,69196,999,310,.78208997E-3,.155734E-2,0
STARLINK-37419,2026-114R,2026-06-06T14:00:04.000032,15.80820677,.00013015,53.1588,255.2665,73.9932,27.4519,0,U,69197,999,310,.46858933E-3,.92558E-3,0
STARLINK-37321,2026-114S,2026-06-06T14:00:04.000032,15.80854597,.00015265,53.1588,255.2582,84.0611,21.6352,0,U,69198,999,310,.15535905E-3,.30045E-3,0
STARLINK-37406,2026-114T,2026-06-06T14:00:04.000032,15.80810635,.00010197,53.1588,255.2490,68.9133,41.0688,0,U,69199,999,310,.68083476E-3,.13541E-2,0
STARLINK-37761,2026-114U,2026-06-06T14:00:04.000032,15.80844970,.00011908,53.1587,255.2398,70.5890,43.6541,0,U,69200,999,310,.2750106E-3,.53848E-3,0
STARLINK-37754,2026-114V,2026-06-06T14:00:04.000032,15.80812766,.00007652,53.1587,255.2290,91.1174,28.5228,0,U,69201,999,310,.51873863E-3,.10262E-2,0
STARLINK-37649,2026-114W,2026-06-06T14:00:04.000032,15.80858298,.00008197,53.1587,255.2229,79.7925,42.9870,0,U,69202,999,310,.17122762E-3,.33203E-3,0
STARLINK-37604,2026-114X,2026-06-06T14:00:04.000032,15.80864234,.00006742,53.1587,255.2139,88.0310,39.0174,0,U,69203,999,310,.13410676E-3,.25838E-3,0
STARLINK-37669,2026-114Y,2026-06-06T14:00:04.000032,15.80856027,.00010901,53.1588,255.2046,85.8922,45.4298,0,U,69204,999,310,.15496324E-3,.29968E-3,0
STARLINK-37691,2026-114Z,2026-06-06T14:00:04.000032,15.80869475,.00009582,53.1588,255.1779,86.0375,58.0872,0,U,69205,999,310,.14060731E-3,.27135E-3,0
STARLINK-37671,2026-114AA,2026-06-06T14:00:04.000032,15.80840993,.00010447,53.1588,255.1867,91.1233,48.7450,0,U,69206,999,310,.41078975E-3,.81021E-3,0
STARLINK-37647,2026-114AB,2026-06-06T14:00:04.000032,15.80875662,.00010097,53.1587,255.1959,90.2229,45.3633,0,U,69207,999,310,.5648581E-5,.416E-5,0
STARLINK-37562,2026-114AC,2026-06-06T14:00:04.000032,15.80838687,.00010499,53.1587,255.1688,80.7146,67.6965,0,U,69208,999,310,.38241671E-3,.75318E-3,0
STARLINK-37682,2026-114AD,2026-06-06T14:00:04.000032,15.80871347,.00008428,53.1588,255.1598,80.8048,71.8602,0,U,69209,999,310,.93082183E-4,.17709E-3,0
STARLINK-37402,2026-114AE,2026-06-06T14:00:04.000032,15.80878877,.00011554,53.1587,255.1512,83.8269,73.1119,0,U,69210,999,310,.14681273E-4,.22E-4,0
STARLINK-37613,2026-115A,2026-06-06T14:00:04.000032,15.78844716,.00011303,97.2846,174.4545,109.2604,159.0524,0,U,69211,999,299,-.15397539E-1,-.2338423E-1,0
STARLINK-37713,2026-115B,2026-06-06T14:00:04.000032,15.80775561,.00010613,97.2843,174.4551,86.7290,184.4977,0,U,69212,999,299,.31217097E-3,.59954E-3,0
STARLINK-37716,2026-115C,2026-06-06T14:00:04.000032,15.80858161,.00016138,97.2848,174.4545,95.8050,171.2397,0,U,69213,999,299,-.85690306E-3,-.1616E-2,0
STARLINK-37620,2026-115D,2026-06-06T14:00:04.000032,15.76807509,.00016274,97.2849,174.4547,107.7361,162.2032,0,U,69214,999,299,-.18622158E-1,-.2543745E-1,0
STARLINK-37700,2026-115E,2026-06-06T14:00:04.000032,15.66512909,.00016669,97.2854,174.4295,102.5459,108.4411,0,U,69215,999,299,-.27781969E-1,-.2520685E-1,0
STARLINK-37766,2026-115F,2026-06-06T14:00:04.000032,15.80774090,.00010283,97.2840,174.4604,104.4106,179.6353,0,U,69216,999,299,.41880013E-3,.80667E-3,0
STARLINK-37763,2026-115G,2026-06-06T14:00:04.000032,15.80785786,.00011972,97.2840,174.4623,108.1190,179.5324,0,U,69217,999,299,.30298438E-3,.58201E-3,0
STARLINK-37724,2026-115H,2026-06-06T14:00:04.000032,15.80790982,.0001387,97.2843,174.4644,119.4122,172.9952,0,U,69218,999,299,.21023734E-3,.40268E-3,0
STARLINK-37758,2026-115J,2026-06-06T14:00:04.000032,15.80775044,.00010011,97.2840,174.4723,111.8064,198.8521,0,U,69219,999,299,.37578488E-3,.72301E-3,0
STARLINK-37201,2026-115K,2026-06-06T14:00:04.000032,15.80771425,.00010926,97.2844,174.4691,106.6790,196.9567,0,U,69220,999,299,.40411745E-3,.77799E-3,0
STARLINK-37728,2026-115L,2026-06-06T14:00:04.000032,15.80771374,.00011954,97.2842,174.4758,96.7791,220.6135,0,U,69221,999,299,.42281118E-3,.81439E-3,0
STARLINK-37760,2026-115M,2026-06-06T14:00:04.000032,15.80793351,.00013237,97.2842,174.4689,113.5873,188.2091,0,U,69222,999,299,.19986985E-3,.38271E-3,0
STARLINK-37759,2026-115N,2026-06-06T14:00:04.000032,15.80798950,.00012742,97.2836,174.4760,118.7938,202.6727,0,U,69223,999,299,.27313673E-4,.5089E-4,0
STARLINK-37725,2026-115P,2026-06-06T14:00:04.000032,15.80782970,.00010732,97.2844,174.4757,105.8072,212.4286,0,U,69224,999,299,.31822599E-3,.61148E-3,0
STARLINK-37770,2026-115Q,2026-06-06T14:00:04.000032,15.80760898,.00016969,97.2845,174.4740,104.6675,210.2602,0,U,69225,999,299,-.12178088E-3,-.23349E-3,0
