STARLINK-36933          
1 69196U 26114Q   26157.58337963  .00155734  00000+0  78209-3 0  9993
2 69196  53.1586 255.2845 0000681 114.4516 338.4836 15.80770295  3102
STARLINK-37419          
1 69197U 26114R   26157.58337963  .00092558  00000+0  46859-3 0  9994
2 69197  53.1588 255.2665 0001301  73.9932  27.4519 15.80820677  3109
STARLINK-37321          
1 69198U 26114S   26157.58337963  .00030045  00000+0  15536-3 0  9996
2 69198  53.1588 255.2582 0001526  84.0611  21.6352 15.80854597  3103
STARLINK-37406          
1 69199U 26114T   26157.58337963  .00135410  00000+0  68083-3 0  9994
2 69199  53.1588 255.2490 0001019  68.9133  41.0688 15.80810635  3102
STARLINK-37761          
1 69200U 26114U   26157.58337963  .00053848  00000+0  27501-3 0  9991
2 69200  53.1587 255.2398 0001190  70.5890  43.6541 15.80844970  3105
STARLINK-37754          
1 69201U 26114V   26157.58337963  .00102620  00000+0  51874-3 0  9995
2 69201  53.1587 255.2290 0000765  91.1174  28.5228 15.80812766  3100
STARLINK-37649          
1 69202U 26114W   26157.58337963  .00033203  00000+0  17123-3 0  9995
2 69202  53.1587 255.2229 0000819  79.7925  42.9870 15.80858298  3102
STARLINK-37604          
1 69203U 26114X   26157.58337963  .00025838  00000+0  13411-3 0  9997
2 69203  53.1587 255.2139 0000674  88.0310  39.0174 15.80864234  3104
STARLINK-37669          
1 69204U 26114Y   26157.58337963  .00029968  00000+0  15496-3 0  9991
2 69204  53.1588 255.2046 0001090  85.8922  45.4298 15.80856027  3109
STARLINK-37691          
1 69205U 26114Z   26157.58337963  .00027135  00000+0  14061-3 0  9993
2 69205  53.1588 255.1779 0000958  86.0375  58.0872 15.80869475  3108
STARLINK-37671          
1 69206U 26114AA  26157.58337963  .00081021  00000+0  41079-3 0  9997
2 69206  53.1588 255.1867 0001044  91.1233  48.7450 15.80840993  3106
STARLINK-37647          
1 69207U 26114AB  26157.58337963  .00000416  00000+0  56486-5 0  9997
2 69207  53.1587 255.1959 0001009  90.2229  45.3633 15.80875662  3101
STARLINK-37562          
1 69208U 26114AC  26157.58337963  .00075318  00000+0  38242-3 0  9999
2 69208  53.1587 255.1688 0001049  80.7146  67.6965 15.80838687  3108
STARLINK-37682          
1 69209U 26114AD  26157.58337963  .00017709  00000+0  93082-4 0  9994
2 69209  53.1588 255.1598 0000842  80.8048  71.8602 15.80871347  3107
STARLINK-37402          
1 69210U 26114AE  26157.58337963  .00002200  00000+0  14681-4 0  9994
2 69210  53.1587 255.1512 0001155  83.8269  73.1119 15.80878877  3103
STARLINK-37613          
1 69211U 26115A   26157.58337963 -.02338423  00000+0 -15398-1 0  9992
2 69211  97.2846 174.4545 0001130 109.2604 159.0524 15.78844716  2991
STARLINK-37713          
1 69212U 26115B   26157.58337963  .00059954  00000+0  31217-3 0  9998
2 69212  97.2843 174.4551 0001061  86.7290 184.4977 15.80775561  2997
STARLINK-37716          
1 69213U 26115C   26157.58337963 -.00161600  00000+0 -85690-3 0  9997
2 69213  97.2848 174.4545 0001613  95.8050 171.2397 15.80858161  2992
STARLINK-37620          
1 69214U 26115D   26157.58337963 -.02543745  00000+0 -18622-1 0  9993
2 69214  97.2849 174.4547 0001627 107.7361 162.2032 15.76807509  2990
STARLINK-37700          
1 69215U 26115E   26157.58337963 -.02520685  00000+0 -27782-1 0  9999
2 69215  97.2854 174.4295 0001666 102.5459 108.4411 15.66512909  2990
STARLINK-37766          
1 69216U 26115F   26157.58337963  .00080667  00000+0  41880-3 0  9994
2 69216  97.2840 174.4604 0001028 104.4106 179.6353 15.80774090  2994
STARLINK-37763          
1 69217U 26115G   26157.58337963  .00058201  00000+0  30298-3 0  9995
2 69217  97.2840 174.4623 0001197 108.1190 179.5324 15.80785786  2998
STARLINK-37724          
1 69218U 26115H   26157.58337963  .00040268  00000+0  21024-3 0  9997
2 69218  97.2843 174.4644 0001387 119.4122 172.9952 15.80790982  2994
STARLINK-37758          
1 69219U 26115J   26157.58337963  .00072301  00000+0  37578-3 0  9992
2 69219  97.2840 174.4723 0001001 111.8064 198.8521 15.80775044  2995
STARLINK-37201          
1 69220U 26115K   26157.58337963  .00077799  00000+0  40412-3 0  9991
2 69220  97.2844 174.4691 0001092 106.6790 196.9567 15.80771425  2991
STARLINK-37728          
1 69221U 26115L   26157.58337963  .00081439  00000+0  42281-3 0  9994
2 69221  97.2842 174.4758 0001195  96.7791 220.6135 15.80771374  2997
STARLINK-37760          
1 69222U 26115M   26157.58337963  .00038271  00000+0  19987-3 0  9998
2 69222  97.2842 174.4689 0001323 113.5873 188.2091 15.80793351  2992
STARLINK-37759          
1 69223U 26115N   26157.58337963  .00005089  00000+0  27314-4 0  9994
2 69223  97.2836 174.4760 0001274 118.7938 202.6727 15.80798950  2997
STARLINK-37725          
1 69224U 26115P   26157.58337963  .00061148  00000+0  31823-3 0  9992
2 69224  97.2844 174.4757 0001073 105.8072 212.4286 15.80782970  2990
STARLINK-37770          
1 69225U 26115Q   26157.58337963 -.00023349  00000+0 -12178-3 0  9998
2 69225  97.2845 174.4740 0001696 104.6675 210.2602 15.80760898  2994
